{
  "type": "FeatureCollection",
  "features": [
    {
      "type": "Feature",
      "properties": {
        "norad_id": 34588,
        "name": "COSMOS 2251 DEB",
        "group": "cosmos-2251-debris",
        "lat": -71.33606534302976,
        "lon": -143.14335741091142,
        "alt_km": 749.6792695367913,
        "timestamp": "2025-12-09T05:43:21.121170+00:00",
        "meta_object_name": "COSMOS 2251 DEB",
        "meta_object_id": "1993-036WA",
        "meta_epoch": "2025-12-08T20:22:30.199296",
        "meta_mean_motion": 14.42004185,
        "meta_eccentricity": 0.001909,
        "meta_inclination": 74.0441,
        "meta_ra_of_asc_node": 275.4645,
        "meta_arg_of_pericenter": 328.549,
        "meta_mean_anomaly": 90.3806,
        "meta_ephemeris_type": 0,
        "meta_classification_type": "U",
        "meta_norad_cat_id": 34588,
        "meta_element_set_no": 999,
        "meta_rev_at_epoch": 87894,
        "meta_bstar": 0.00095819,
        "meta_mean_motion_dot": 3.125e-05,
        "meta_mean_motion_ddot": 0,
        "tle_line1": "1 34588U 93036WA  25342.84896064  .00003125  00000+0  95819-3 0  9995",
        "tle_line2": "2 34588  74.0441 275.4645 0019090 328.5490  90.3806 14.42004185878944"
      },
      "geometry": {
        "type": "Point",
        "coordinates": [
          -143.14335741091142,
          -71.33606534302976
        ]
      }
    },
    {
      "type": "Feature",
      "properties": {
        "norad_id": 34589,
        "name": "COSMOS 2251 DEB",
        "group": "cosmos-2251-debris",
        "lat": 63.82493658533255,
        "lon": -153.9193394583161,
        "alt_km": 978.7901622459676,
        "timestamp": "2025-12-09T05:43:21.121180+00:00",
        "meta_object_name": "COSMOS 2251 DEB",
        "meta_object_id": "1993-036WB",
        "meta_epoch": "2025-12-08T06:57:07.176960",
        "meta_mean_motion": 13.86047375,
        "meta_eccentricity": 0.02517547,
        "meta_inclination": 73.9253,
        "meta_ra_of_asc_node": 63.614,
        "meta_arg_of_pericenter": 7.8505,
        "meta_mean_anomaly": 47.8863,
        "meta_ephemeris_type": 0,
        "meta_classification_type": "U",
        "meta_norad_cat_id": 34589,
        "meta_element_set_no": 999,
        "meta_rev_at_epoch": 84650,
        "meta_bstar": 0.00039289139,
        "meta_mean_motion_dot": 5.56e-06,
        "meta_mean_motion_ddot": 0,
        "tle_line1": "1 34589U 93036WB  25342.28966640  .00000556  00000+0  39289-3 0  9996",
        "tle_line2": "2 34589  73.9253  63.6140 0251754   7.8505  47.8863 13.86047375846502"
      },
      "geometry": {
        "type": "Point",
        "coordinates": [
          -153.9193394583161,
          63.82493658533255
        ]
      }
    },
    {
      "type": "Feature",
      "properties": {
        "norad_id": 34590,
        "name": "COSMOS 2251 DEB",
        "group": "cosmos-2251-debris",
        "lat": -50.85863721919193,
        "lon": -51.40683885429982,
        "alt_km": 759.5860246049178,
        "timestamp": "2025-12-09T05:43:21.121191+00:00",
        "meta_object_name": "COSMOS 2251 DEB",
        "meta_object_id": "1993-036WC",
        "meta_epoch": "2025-12-08T17:36:12.838752",
        "meta_mean_motion": 14.54819507,
        "meta_eccentricity": 0.0067965,
        "meta_inclination": 74.0436,
        "meta_ra_of_asc_node": 330.1295,
        "meta_arg_of_pericenter": 100.9104,
        "meta_mean_anomaly": 82.182,
        "meta_ephemeris_type": 0,
        "meta_classification_type": "U",
        "meta_norad_cat_id": 34590,
        "meta_element_set_no": 999,
        "meta_rev_at_epoch": 89062,
        "meta_bstar": 0.00024821,
        "meta_mean_motion_dot": 1.069e-05,
        "meta_mean_motion_ddot": 0,
        "tle_line1": "1 34590U 93036WC  25342.73348193  .00001069  00000+0  24821-3 0  9991",
        "tle_line2": "2 34590  74.0436 330.1295 0067965 100.9104  82.1820 14.54819507890628"
      },
      "geometry": {
        "type": "Point",
        "coordinates": [
          -51.40683885429982,
          -50.85863721919193
        ]
      }
    },
    {
      "type": "Feature",
      "properties": {
        "norad_id": 34609,
        "name": "COSMOS 2251 DEB",
        "group": "cosmos-2251-debris",
        "lat": 45.03490799174748,
        "lon": -83.87662136388862,
        "alt_km": 912.4751630243745,
        "timestamp": "2025-12-09T05:43:21.121201+00:00",
        "meta_object_name": "COSMOS 2251 DEB",
        "meta_object_id": "1993-036WE",
        "meta_epoch": "2025-12-08T19:41:00.147840",
        "meta_mean_motion": 14.2177271,
        "meta_eccentricity": 0.0144891,
        "meta_inclination": 73.733,
        "meta_ra_of_asc_node": 113.8855,
        "meta_arg_of_pericenter": 333.9898,
        "meta_mean_anomaly": 177.6807,
        "meta_ephemeris_type": 0,
        "meta_classification_type": "U",
        "meta_norad_cat_id": 34609,
        "meta_element_set_no": 999,
        "meta_rev_at_epoch": 86576,
        "meta_bstar": 0.0013091,
        "meta_mean_motion_dot": 3.177e-05,
        "meta_mean_motion_ddot": 0,
        "tle_line1": "1 34609U 93036WE  25342.82014060  .00003177  00000+0  13091-2 0  9993",
        "tle_line2": "2 34609  73.7330 113.8855 0144891 333.9898 177.6807 14.21772710865768"
      },
      "geometry": {
        "type": "Point",
        "coordinates": [
          -83.87662136388862,
          45.03490799174748
        ]
      }
    },
    {
      "type": "Feature",
      "properties": {
        "norad_id": 34610,
        "name": "COSMOS 2251 DEB",
        "group": "cosmos-2251-debris",
        "lat": 51.61315063407689,
        "lon": 67.25516921516842,
        "alt_km": 851.8029009256443,
        "timestamp": "2025-12-09T05:43:21.121212+00:00",
        "meta_object_name": "COSMOS 2251 DEB",
        "meta_object_id": "1993-036WF",
        "meta_epoch": "2025-12-08T20:36:47.149056",
        "meta_mean_motion": 14.07013435,
        "meta_eccentricity": 0.0180247,
        "meta_inclination": 74.0204,
        "meta_ra_of_asc_node": 269.1247,
        "meta_arg_of_pericenter": 40.5884,
        "meta_mean_anomaly": 320.8529,
        "meta_ephemeris_type": 0,
        "meta_classification_type": "U",
        "meta_norad_cat_id": 34610,
        "meta_element_set_no": 999,
        "meta_rev_at_epoch": 85505,
        "meta_bstar": 0.0033348,
        "meta_mean_motion_dot": 6.437e-05,
        "meta_mean_motion_ddot": 0,
        "tle_line1": "1 34610U 93036WF  25342.85887904  .00006437  00000+0  33348-2 0  9992",
        "tle_line2": "2 34610  74.0204 269.1247 0180247  40.5884 320.8529 14.07013435855055"
      },
      "geometry": {
        "type": "Point",
        "coordinates": [
          67.25516921516842,
          51.61315063407689
        ]
      }
    },
    {
      "type": "Feature",
      "properties": {
        "norad_id": 34611,
        "name": "COSMOS 2251 DEB",
        "group": "cosmos-2251-debris",
        "lat": 63.13539993718707,
        "lon": -106.62203288341951,
        "alt_km": 643.7701232617856,
        "timestamp": "2025-12-09T05:43:21.121223+00:00",
        "meta_object_name": "COSMOS 2251 DEB",
        "meta_object_id": "1993-036WG",
        "meta_epoch": "2025-12-08T11:33:31.679424",
        "meta_mean_motion": 14.69373356,
        "meta_eccentricity": 0.00231754,
        "meta_inclination": 74.0536,
        "meta_ra_of_asc_node": 109.2058,
        "meta_arg_of_pericenter": 152.3424,
        "meta_mean_anomaly": 277.9243,
        "meta_ephemeris_type": 0,
        "meta_classification_type": "U",
        "meta_norad_cat_id": 34611,
        "meta_element_set_no": 999,
        "meta_rev_at_epoch": 88328,
        "meta_bstar": 0.0022807542,
        "meta_mean_motion_dot": 0.00013536,
        "meta_mean_motion_ddot": 0,
        "tle_line1": "1 34611U 93036WG  25342.48161666  .00013536  00000+0  22808-2 0  9999",
        "tle_line2": "2 34611  74.0536 109.2058 0023175 152.3424 277.9243 14.69373356883286"
      },
      "geometry": {
        "type": "Point",
        "coordinates": [
          -106.62203288341951,
          63.13539993718707
        ]
      }
    },
    {
      "type": "Feature",
      "properties": {
        "norad_id": 34613,
        "name": "COSMOS 2251 DEB",
        "group": "cosmos-2251-debris",
        "lat": 18.712079425148154,
        "lon": -69.49822687621696,
        "alt_km": 813.9231902016909,
        "timestamp": "2025-12-09T05:43:21.121233+00:00",
        "meta_object_name": "COSMOS 2251 DEB",
        "meta_object_id": "1993-036WJ",
        "meta_epoch": "2025-12-08T06:46:17.263200",
        "meta_mean_motion": 14.26392595,
        "meta_eccentricity": 0.01101087,
        "meta_inclination": 73.9641,
        "meta_ra_of_asc_node": 286.6469,
        "meta_arg_of_pericenter": 119.6298,
        "meta_mean_anomaly": 32.5714,
        "meta_ephemeris_type": 0,
        "meta_classification_type": "U",
        "meta_norad_cat_id": 34613,
        "meta_element_set_no": 999,
        "meta_rev_at_epoch": 86399,
        "meta_bstar": 0.0018958544,
        "meta_mean_motion_dot": 4.838e-05,
        "meta_mean_motion_ddot": 0,
        "tle_line1": "1 34613U 93036WJ  25342.28214425  .00004838  00000+0  18959-2 0  9998",
        "tle_line2": "2 34613  73.9641 286.6469 0110108 119.6298  32.5714 14.26392595863990"
      },
      "geometry": {
        "type": "Point",
        "coordinates": [
          -69.49822687621696,
          18.712079425148154
        ]
      }
    }
  ]
}